DELTA 2 R/B(1)          
1 20453U 90008B   26110.13317995  .00055765  00000+0  54530-3 0  9996
2 20453  35.6027 261.7215 0075739 288.0346  71.2150 15.61339721932609
COSMOS 2058             
1 20465U 90010A   26110.15594306  .00001763  00000+0  10183-3 0  9992
2 20465  82.4708   6.5743 0009224 181.7959 178.3240 15.11670739948501
SL-14 R/B               
1 20466U 90010B   26110.03117716  .00000323  00000+0  36094-4 0  9997
2 20466  82.5033 228.5516 0020350 159.6944 200.5085 14.83607764934617
SL-14 R/B               
1 20511U 90018B   26110.15611535  .00000264  00000+0  30114-4 0  9998
2 20511  82.5238 184.3447 0015137 319.4601  40.5485 14.82181640928720
HST                     
1 20580U 90037B   26110.10655020  .00005388  00000+0  17213-3 0  9993
2 20580  28.4729 117.3241 0001925 212.6969 147.3508 15.30088668779668
SL-16 R/B               
1 20625U 90046B   26109.98114044 -.00000160  00000+0 -58036-4 0  9997
2 20625  70.9993 211.1903 0016308 245.3510 114.5914 14.15015268854239
COSMOS 2084             
1 20663U 90055A   26109.56357880  .00001456  00000+0  11349-3 0  9992
2 20663  62.7892 196.1429 0010613 206.2383 153.8181 15.05880223942477
SL-6 R/B(2)             
1 20666U 90055D   26110.00171721  .00001308  00000+0  10856-3 0  9992
2 20666  62.7803 113.3403 0031499 355.8097   4.2734 15.03773040944407
SL-8 R/B                
1 20775U 90078B   26109.81814950  .00014681  00000+0  43224-3 0  9996
2 20775  82.9059 214.2884 0356487 235.0470 121.6793 14.90169412815425
SL-8 R/B                
1 21088U 91006B   26110.09824784  .00000156  00000+0  14125-3 0  9994
2 21088  82.9408 139.2530 0020927 279.7745 133.9709 13.77502711769778
OKEAN-3                 
1 21397U 91039A   26109.96939946  .00001648  00000+0  11392-3 0  9994
2 21397  82.5132 296.8336 0014083 183.2823 176.8314 15.05026812871247
COSMOS 2151             
1 21422U 91042A   26110.17051329  .00001270  00000+0  99249-4 0  9991
2 21422  82.4982  43.6555 0010635 281.8147  78.1884 15.00276957869416
SL-14 R/B               
1 21423U 91042B   26110.15050242  .00000257  00000+0  29468-4 0  9993
2 21423  82.4955 181.3167 0018568 104.0437 256.2843 14.81867103859215
ERS-1                   
1 21574U 91050A   26110.05589352  .00000203  00000+0  79400-4 0  9999
2 21574  98.7843 129.3247 0033101  80.1742 280.3180 14.39479722821683
ARIANE 40 R/B           
1 21610U 91050F   26110.14718463  .00000153  00000+0  58192-4 0  9996
2 21610  98.1932 160.8104 0002090 328.8672  31.2394 14.42921895824978
INTERCOSMOS 25          
1 21819U 91086A   26110.17552264  .00000779  00000+0  14829-3 0  9996
2 21819  82.5990 284.9176 1485810  27.5288 339.7057 12.12121729501718
SL-8 R/B                
1 21876U 92008B   26110.12035134  .00000004  00000+0 -11583-4 0  9998
2 21876  82.9267 236.9562 0034969  21.1278 151.6920 13.75970033715112
SL-8 R/B                
1 21938U 92020B   26110.15505036 -.00000056  00000+0 -74304-4 0  9995
2 21938  82.9271 122.9660 0029023 179.2171 249.2691 13.75548978706838
USA 81                  
1 21949U 92023A   26110.22395017  .00000116  00000+0  35658-4 0  9998
2 21949  85.0036 107.4646 0001222  93.7235 266.4097 14.32380878100732
COSMOS 2219             
1 22219U 92076A   26109.83206500  .00000258  00000+0  15990-3 0  9993
2 22219  71.0585 292.0624 0017150 142.3406 217.8921 14.14091203724191
SL-16 R/B               
1 22220U 92076B   26110.06946715 -.00000144  00000+0 -47905-4 0  9999
2 22220  70.9982 101.2081 0011768  21.9950  47.0529 14.16866919727696
COSMOS 2221             
1 22236U 92080A   26109.83160405  .00001356  00000+0  11724-3 0  9991
2 22236  82.5035 239.6608 0015370  58.2036 302.0681 14.96370610786945
SL-16 R/B               
1 22285U 92093B   26110.15208514  .00000140  00000+0  95879-4 0  9994
2 22285  71.0199 277.2235 0006258 251.3769 108.6675 14.15454064719026
COSMOS 2228             
1 22286U 92094A   26110.22123083  .00001240  00000+0  10409-3 0  9998
2 22286  82.5206 197.5503 0018609 158.1311 202.0710 14.97391679782273
SL-16 R/B               
1 22566U 93016B   26110.05531588 -.00000269  00000+0 -11338-3 0  9992
2 22566  71.0042 128.3043 0012649 262.1446  97.8241 14.15311617708023
COSMOS 2242             
1 22626U 93024A   26110.02107498  .00001380  00000+0  11820-3 0  9993
2 22626  82.5198 227.1759 0016821 161.7929 198.3900 14.96724952786571
SL-16 R/B               
1 22803U 93059B   26110.19031086 -.00000194  00000+0 -72387-4 0  9995
2 22803  70.9890 283.6090 0016088 153.8599 206.3341 14.17238586685419
ARIANE 40 R/B           
1 22830U 93061H   26110.10778000  .00000123  00000+0  60733-4 0  9995
2 22830  98.4851 178.1631 0011326 156.1171 204.0541 14.32881896700030
COSMOS 2278             
1 23087U 94023A   26110.18321813  .00000313  00000+0  18833-3 0  9997
2 23087  71.0521  88.2830 0010116 315.0532  44.9771 14.14383658650674
SL-16 R/B               
1 23088U 94023B   26110.06955426 -.00000246  00000+0 -10215-3 0  9991
2 23088  71.0010 343.9876 0005418 248.9300 111.1243 14.15016762651947
SL-16 R/B               
1 23343U 94074B   26110.04453654  .00000278  00000+0  43778-4 0  9999
2 23343  97.7048 139.1757 0008111  87.8802 300.4889 14.79451694693368
SL-16 R/B               
1 23405U 94077B   26110.17638244  .00000254  00000+0  15411-3 0  9991
2 23405  70.9817 265.2056 0000772 144.7666 215.3508 14.15569703622100
ARIANE 40+ R/B          
1 23561U 95021B   26110.16006149  .00000178  00000+0  70601-4 0  9994
2 23561  98.4437 181.0668 0007085  28.2386   0.7345 14.39800389625213
SL-16 R/B               
1 23705U 95058B   26110.18538329  .00000043  00000+0  46326-4 0  9994
2 23705  71.0200  93.1344 0010758  49.1847 311.0207 14.15505003573729
SL-16 R/B               
1 24298U 96051B   26110.17130852  .00000030  00000+0  42951-4 0  9990
2 24298  70.7589  87.4368 0012531  76.8895 283.3623 14.12426206527508
ORBVIEW 2 (SEASTAR)     
1 24883U 97037A   26109.95988500  .00000153  00000+0  69397-4 0  9999
2 24883  98.8635 275.3803 0001265 319.3350  40.7740 14.35522054514397
SL-16 R/B               
1 25400U 98043G   26110.12783647  .00000024  00000+0  29124-4 0  9990
2 25400  98.8321  63.8031 0008780 252.8523 107.1695 14.26058742444892
SL-16 R/B               
1 25407U 98045B   26109.96402020 -.00000184  00000+0 -68872-4 0  9994
2 25407  71.0094  94.7738 0009158 310.3321  49.7001 14.16198793432947
ISS (ZARYA)             
1 25544U 98067A   26110.13518310  .00007929  00000+0  15272-3 0  9998
2 25544  51.6328 227.4156 0006665 328.2959  31.7627 15.48842238562751
CZ-4B R/B               
1 25732U 99025C   26110.07106536  .00000022  00000+0  31290-4 0  9994
2 25732  98.6546 153.3561 0036345 224.5706 165.0326 14.18273169394034
OKEAN-O                 
1 25860U 99039A   26110.15338000  .00000398  00000+0  58939-4 0  9998
2 25860  97.9365 169.6058 0001358 115.8346 244.3007 14.80396237440520
SL-16 R/B               
1 25861U 99039B   26110.09436017  .00000377  00000+0  54451-4 0  9991
2 25861  97.9887 169.1111 0016012 120.7922 239.4869 14.81784757442996
DELTA 2 R/B             
1 25876U 99041E   26110.06538506  .00000174  00000+0  68381-4 0  9995
2 25876  51.7596 135.9871 0502520 110.4388 255.1230 14.11921070368872
HELIOS 1B               
1 25977U 99064A   26110.00854920  .00001011  00000+0  11696-3 0  9994
2 25977  98.1655  13.4596 0000575  44.5496 315.5765 14.87845931691405
TERRA                   
1 25994U 99068A   26110.14156889  .00000263  00000+0  62546-4 0  9990
2 25994  97.9512 161.9749 0003461  68.1911 314.1420 14.61055783401135
SL-16 R/B               
1 26070U 00006B   26110.13148861 -.00000001  00000+0  23524-4 0  9994
2 26070  71.0043  10.6982 0014713 122.8606 237.3936 14.15828347354423
TITAN 4B R/B            
1 26474U 00047B   26110.10268069  .00002145  00000+0  13791-3 0  9991
2 26474  67.9880 284.0257 0041827 347.7466  12.2662 15.09884000399162
ENVISAT                 
1 27386U 02009A   26110.11212242  .00000055  00000+0  31798-4 0  9993
2 27386  98.3792  62.7411 0001151  85.6366 284.7515 14.39050306265139
IDEFIX & ARIANE 42P R/B 
1 27422U 02021B   26110.09780194  .00000164  00000+0  78766-4 0  9998
2 27422  98.5915  48.2216 0012960  67.5201 292.7353 14.31052544249946
AQUA                    
1 27424U 02022A   26110.22610022  .00000562  00000+0  12177-3 0  9993
2 27424  98.4238  78.3699 0001927 102.2348 314.9309 14.62064491274803
CZ-4B R/B               
1 27432U 02024C   26110.08972303  .00000018  00000+0  32589-4 0  9997
2 27432  98.8755 163.2710 0049048 265.2689 114.0750 14.14554844235092
MIDORI II (ADEOS-II)    
1 27597U 02056A   26110.17604742  .00000182  00000+0  89256-4 0  9998
2 27597  98.7836  68.9595 0000520 146.6522 213.4692 14.29315007216220
H-2A R/B                
1 27601U 02056E   26110.15094928  .00000218  00000+0  90870-4 0  9995
2 27601  98.3270  68.9567 0071056  38.8888 333.8027 14.33789315220059
CZ-4B R/B               
1 28059U 03049C   26109.91881480  .00000259  00000+0  70824-4 0  9997
2 28059  98.6900 106.4511 0049302 105.5334 255.1312 14.55055538192591
CZ-2C R/B               
1 28222U 04012C   26110.17791051  .00043016  00000+0  36200-3 0  9991
2 28222  97.7134 179.5496 0014002 155.0972 205.0967 15.69622441210772
SL-16 R/B               
1 28353U 04021B   26110.10666907 -.00000126  00000+0 -40626-4 0  9995
2 28353  70.9997 145.5793 0006620 316.1402  43.9194 14.14605631128696
CZ-4B R/B               
1 28415U 04035C   26110.06226450  .00006558  00000+0  22689-3 0  9990
2 28415  97.3426 143.8138 0031784 178.4746 181.6597 15.29738411186239
CZ-2C R/B               
1 28480U 04046B   26109.99513713  .00000116  00000+0  57907-4 0  9991
2 28480  98.1971  22.4044 0140156  33.1689 327.8184 14.27008052114392
ARIANE 5 R/B            
1 28499U 04049H   26110.06330676  .00000664  00000+0  79723-4 0  9997
2 28499  98.2683 280.0862 0083319 216.2834 143.2713 14.85343080151932
